{"fetched_at":"2026-03-30T06:02:59Z","count":15439,"tles":[{"name":"STARLINK-5052","line1":"1 53893U 22119H   26087.82728033  .00000612  00000+0  56535-4 0  9995","line2":"2 53893  53.2161 238.2122 0001453  94.5293 265.5866 15.08845992194578","category":"Starlink"}]}