{
  "norad_id": 53893,
  "name": "STARLINK-5052",
  "history": [
    {
      "epoch": "2026-03-28T19:51:17.020512",
      "apogee_km": 540.7307234875307,
      "perigee_km": 538.7194242681717,
      "latitude_deg": -37.70386763566915,
      "longitude_deg": 8.71891168016009,
      "semi_major_axis_km": 6917.862073877851,
      "eccentricity": 0.00014537,
      "inclination_deg": 53.2161,
      "raan_deg": 238.2122,
      "arg_perigee_deg": 94.5293,
      "mean_anomaly_deg": 265.5866,
      "mean_motion_rev_day": 15.08845992
    }
  ]
}